[
    {
        "Altitude(m)": 624792.7707895462,
        "Argument of Periapsis(deg)": 0.0,
        "Eccentricity": 0.0,
        "Inclination(deg)": 60.0,
        "Latitude(deg)": -59.147083683582736,
        "Longitude(deg)": -175.9737772719984,
        "Mean Anomaly(deg)": 261.8182,
        "RAAN(deg)": 30.0,
        "Satellite Name": "Test1 148",
        "Satellite Number": 148,
        "Semi-Major Axis(m)": 6980739.136638005,
        "Time(s)": 0
    },
    {
        "Altitude(m)": 624842.1635268676,
        "Argument of Periapsis(deg)": 0.00010418945913296404,
        "Eccentricity": 0.0,
        "Inclination(deg)": 60.0,
        "Latitude(deg)": -59.289169400980924,
        "Longitude(deg)": -174.84427431653233,
        "Mean Anomaly(deg)": 262.43830614546187,
        "RAAN(deg)": 29.99957995086026,
        "Satellite Name": "Test1 148",
        "Satellite Number": 148,
        "Semi-Major Axis(m)": 6980739.136638005,
        "Time(s)": 10
    },
    {
        "Altitude(m)": 624887.7320082803,
        "Argument of Periapsis(deg)": 0.0002083789182659281,
        "Eccentricity": 0.0,
        "Inclination(deg)": 60.0,
        "Latitude(deg)": -59.42064428584042,
        "Longitude(deg)": -173.70535066714945,
        "Mean Anomaly(deg)": 263.0584122909236,
        "RAAN(deg)": 29.999159901720517,
        "Satellite Name": "Test1 148",
        "Satellite Number": 148,
        "Semi-Major Axis(m)": 6980739.136638005,
        "Time(s)": 20
    },
    {
        "Altitude(m)": 624929.458270138,
        "Argument of Periapsis(deg)": 0.00031256837739889213,
        "Eccentricity": 0.0,
        "Inclination(deg)": 60.0,
        "Latitude(deg)": -59.541371034820216,
        "Longitude(deg)": -172.55762862442515,
        "Mean Anomaly(deg)": 263.67851843638556,
        "RAAN(deg)": 29.99873985258077,
        "Satellite Name": "Test1 148",
        "Satellite Number": 148,
        "Semi-Major Axis(m)": 6980739.136638005,
        "Time(s)": 30
    },
    {
        "Altitude(m)": 624967.3258599538,
        "Argument of Periapsis(deg)": 0.0004167578365318562,
        "Eccentricity": 0.0,
        "Inclination(deg)": 60.0,
        "Latitude(deg)": -59.65122147790071,
        "Longitude(deg)": -171.40176547421868,
        "Mean Anomaly(deg)": 264.2986245818473,
        "RAAN(deg)": 29.998319803441028,
        "Satellite Name": "Test1 148",
        "Satellite Number": 148,
        "Semi-Major Axis(m)": 6980739.136638005,
        "Time(s)": 40
    },
    {
        "Altitude(m)": 625001.3198433447,
        "Argument of Periapsis(deg)": 0.0005209472956648203,
        "Eccentricity": 0.0,
        "Inclination(deg)": 60.0,
        "Latitude(deg)": -59.75007721748081,
        "Longitude(deg)": -170.2384526510065,
        "Mean Anomaly(deg)": 264.9187307273092,
        "RAAN(deg)": 29.997899754301283,
        "Satellite Name": "Test1 148",
        "Satellite Number": 148,
        "Semi-Major Axis(m)": 6980739.136638005,
        "Time(s)": 50
    },
    {
        "Altitude(m)": 625031.4268103245,
        "Argument of Periapsis(deg)": 0.0006251367547977843,
        "Eccentricity": 0.0,
        "Inclination(deg)": 60.0,
        "Latitude(deg)": -59.83783023440501,
        "Longitude(deg)": -169.06841306364433,
        "Mean Anomaly(deg)": 265.538836872771,
        "RAAN(deg)": 29.99747970516154,
        "Satellite Name": "Test1 148",
        "Satellite Number": 148,
        "Semi-Major Axis(m)": 6980739.136638005,
        "Time(s)": 60
    },
    {
        "Altitude(m)": 625057.6348809506,
        "Argument of Periapsis(deg)": 0.0007293262139307483,
        "Eccentricity": 0.0,
        "Inclination(deg)": 60.0,
        "Latitude(deg)": -59.914383454082035,
        "Longitude(deg)": -167.89239810665993,
        "Mean Anomaly(deg)": 266.15894301823283,
        "RAAN(deg)": 29.997059656021797,
        "Satellite Name": "Test1 148",
        "Satellite Number": 148,
        "Semi-Major Axis(m)": 6980739.136638005,
        "Time(s)": 70
    },
    {
        "Altitude(m)": 625079.9337103235,
        "Argument of Periapsis(deg)": 0.0008335156730637124,
        "Eccentricity": 0.0,
        "Inclination(deg)": 60.0,
        "Latitude(deg)": -59.97965126606215,
        "Longitude(deg)": -166.71118588585685,
        "Mean Anomaly(deg)": 266.77904916369465,
        "RAAN(deg)": 29.996639606882056,
        "Satellite Name": "Test1 148",
        "Satellite Number": 148,
        "Semi-Major Axis(m)": 6980739.136638005,
        "Time(s)": 80
    },
    {
        "Altitude(m)": 625098.3144929525,
        "Argument of Periapsis(deg)": 0.0009377051321966765,
        "Eccentricity": 0.0,
        "Inclination(deg)": 60.0,
        "Latitude(deg)": -60.033559990801784,
        "Longitude(deg)": -165.52557765387854,
        "Mean Anomaly(deg)": 267.39915530915647,
        "RAAN(deg)": 29.996219557742315,
        "Satellite Name": "Test1 148",
        "Satellite Number": 148,
        "Semi-Major Axis(m)": 6980739.136638005,
        "Time(s)": 90
    },
    {
        "Altitude(m)": 625112.7699664532,
        "Argument of Periapsis(deg)": 0.0010418945913296407,
        "Eccentricity": 0.0,
        "Inclination(deg)": 60.0,
        "Latitude(deg)": -60.076048287819866,
        "Longitude(deg)": -164.33639399530477,
        "Mean Anomaly(deg)": 268.01926145461834,
        "RAAN(deg)": 29.995799508602573,
        "Satellite Name": "Test1 148",
        "Satellite Number": 148,
        "Semi-Major Axis(m)": 6980739.136638005,
        "Time(s)": 100
    },
    {
        "Altitude(m)": 625123.2944146123,
        "Argument of Periapsis(deg)": 0.0011460840504626045,
        "Eccentricity": 0.0,
        "Inclination(deg)": 60.0,
        "Latitude(deg)": -60.107067500061284,
        "Longitude(deg)": -163.14447230578685,
        "Mean Anomaly(deg)": 268.6393676000801,
        "RAAN(deg)": 29.99537945946283,
        "Satellite Name": "Test1 148",
        "Satellite Number": 148,
        "Semi-Major Axis(m)": 6980739.136638005,
        "Time(s)": 110
    },
    {
        "Altitude(m)": 625129.8836697864,
        "Argument of Periapsis(deg)": 0.0012502735095955685,
        "Eccentricity": 0.0,
        "Inclination(deg)": 60.0,
        "Latitude(deg)": -60.126581930016435,
        "Longitude(deg)": -161.95066257554427,
        "Mean Anomaly(deg)": 269.2594737455419,
        "RAAN(deg)": 29.994959410323087,
        "Satellite Name": "Test1 148",
        "Satellite Number": 148,
        "Semi-Major Axis(m)": 6980739.136638005,
        "Time(s)": 120
    },
    {
        "Altitude(m)": 625132.5351146789,
        "Argument of Periapsis(deg)": 0.0013544629687285324,
        "Eccentricity": 0.0,
        "Inclination(deg)": 60.0,
        "Latitude(deg)": -60.1345690439667,
        "Longitude(deg)": -160.7558230299411,
        "Mean Anomaly(deg)": 269.8795798910038,
        "RAAN(deg)": 29.994539361183346,
        "Satellite Name": "Test1 148",
        "Satellite Number": 148,
        "Semi-Major Axis(m)": 6980739.136638005,
        "Time(s)": 130
    },
    {
        "Altitude(m)": 625131.2476834216,
        "Argument of Periapsis(deg)": 0.0014586524278614966,
        "Eccentricity": 0.0,
        "Inclination(deg)": 60.0,
        "Latitude(deg)": -60.131019601637625,
        "Longitude(deg)": -159.56081718286546,
        "Mean Anomaly(deg)": 270.4996860364656,
        "RAAN(deg)": 29.994119312043605,
        "Satellite Name": "Test1 148",
        "Satellite Number": 148,
        "Semi-Major Axis(m)": 6980739.136638005,
        "Time(s)": 140
    },
    {
        "Altitude(m)": 625126.0218620327,
        "Argument of Periapsis(deg)": 0.0015628418869944607,
        "Eccentricity": 0.0,
        "Inclination(deg)": 60.0,
        "Latitude(deg)": -60.11593770952967,
        "Longitude(deg)": -158.36650932214434,
        "Mean Anomaly(deg)": 271.11979218192744,
        "RAAN(deg)": 29.993699262903853,
        "Satellite Name": "Test1 148",
        "Satellite Number": 148,
        "Semi-Major Axis(m)": 6980739.136638005,
        "Time(s)": 150
    },
    {
        "Altitude(m)": 625116.8596882259,
        "Argument of Periapsis(deg)": 0.0016670313461274247,
        "Eccentricity": 0.0,
        "Inclination(deg)": 60.0,
        "Latitude(deg)": -60.089340797204855,
        "Longitude(deg)": -157.1737599860235,
        "Mean Anomaly(deg)": 271.7398983273893,
        "RAAN(deg)": 29.99327921376411,
        "Satellite Name": "Test1 148",
        "Satellite Number": 148,
        "Semi-Major Axis(m)": 6980739.136638005,
        "Time(s)": 160
    },
    {
        "Altitude(m)": 625103.7647505337,
        "Argument of Periapsis(deg)": 0.0017712208052603888,
        "Eccentricity": 0.0,
        "Inclination(deg)": 60.0,
        "Latitude(deg)": -60.05125951684732,
        "Longitude(deg)": -155.98342298994243,
        "Mean Anomaly(deg)": 272.3600044728511,
        "RAAN(deg)": 29.99285916462437,
        "Satellite Name": "Test1 148",
        "Satellite Number": 148,
        "Semi-Major Axis(m)": 6980739.136638005,
        "Time(s)": 170
    },
    {
        "Altitude(m)": 625086.7421868287,
        "Argument of Periapsis(deg)": 0.001875410264393353,
        "Eccentricity": 0.0,
        "Inclination(deg)": 60.0,
        "Latitude(deg)": -60.001737567450306,
        "Longitude(deg)": -154.79634102339992,
        "Mean Anomaly(deg)": 272.98011061831295,
        "RAAN(deg)": 29.99243911548463,
        "Satellite Name": "Test1 148",
        "Satellite Number": 148,
        "Semi-Major Axis(m)": 6980739.136638005,
        "Time(s)": 180
    },
    {
        "Altitude(m)": 625065.798682142,
        "Argument of Periapsis(deg)": 0.0019795997235263173,
        "Eccentricity": 0.0,
        "Inclination(deg)": 60.0,
        "Latitude(deg)": -59.940831445972385,
        "Longitude(deg)": -153.61334137356346,
        "Mean Anomaly(deg)": 273.60021676377477,
        "RAAN(deg)": 29.992019066344888,
        "Satellite Name": "Test1 148",
        "Satellite Number": 148,
        "Semi-Major Axis(m)": 6980739.136638005,
        "Time(s)": 190
    }
]